{
  "type": "FeatureCollection",
  "features": [
    {
      "type": "Feature",
      "properties": {
        "OBJECT_NAME": "COSMOS 2433 (720)",
        "OBJECT_ID": "2007-052A",
        "EPOCH": "2025-11-28T01:45:19.581120",
        "MEAN_MOTION": 2.13104008,
        "ECCENTRICITY": 0.00056724,
        "INCLINATION": 65.6911,
        "RA_OF_ASC_NODE": 322.6987,
        "ARG_OF_PERICENTER": 250.9883,
        "MEAN_ANOMALY": 108.9699,
        "EPHEMERIS_TYPE": 0,
        "CLASSIFICATION_TYPE": "U",
        "NORAD_CAT_ID": 32275,
        "ELEMENT_SET_NO": 999,
        "REV_AT_EPOCH": 14077,
        "BSTAR": 0,
        "MEAN_MOTION_DOT": -1.3e-07,
        "MEAN_MOTION_DDOT": 0,
        "norad_id": 32275,
        "name": "COSMOS 2433 (720)",
        "group": "glo-ops",
        "longitude_deg": NaN,
        "latitude_deg": NaN,
        "alt_km": NaN,
        "orbit_class": "HEO",
        "timestamp": "2025-11-30T04:52:16.837509+00:00"
      },
      "geometry": {
        "type": "Point",
        "coordinates": [
          NaN,
          NaN
        ]
      }
    },
    {
      "type": "Feature",
      "properties": {
        "OBJECT_NAME": "COSMOS 2432 (719)",
        "OBJECT_ID": "2007-052B",
        "EPOCH": "2025-11-28T03:29:38.016096",
        "MEAN_MOTION": 2.13103136,
        "ECCENTRICITY": 0.00111941,
        "INCLINATION": 65.7069,
        "RA_OF_ASC_NODE": 322.8202,
        "ARG_OF_PERICENTER": 310.6558,
        "MEAN_ANOMALY": 49.383,
        "EPHEMERIS_TYPE": 0,
        "CLASSIFICATION_TYPE": "U",
        "NORAD_CAT_ID": 32276,
        "ELEMENT_SET_NO": 999,
        "REV_AT_EPOCH": 14079,
        "BSTAR": 0,
        "MEAN_MOTION_DOT": -1.3e-07,
        "MEAN_MOTION_DDOT": 0,
        "norad_id": 32276,
        "name": "COSMOS 2432 (719)",
        "group": "glo-ops",
        "longitude_deg": NaN,
        "latitude_deg": NaN,
        "alt_km": NaN,
        "orbit_class": "HEO",
        "timestamp": "2025-11-30T04:52:16.837515+00:00"
      },
      "geometry": {
        "type": "Point",
        "coordinates": [
          NaN,
          NaN
        ]
      }
    },
    {
      "type": "Feature",
      "properties": {
        "OBJECT_NAME": "COSMOS 2434 (721)",
        "OBJECT_ID": "2007-065A",
        "EPOCH": "2025-11-29T07:23:28.441248",
        "MEAN_MOTION": 2.13101202,
        "ECCENTRICITY": 0.0004276,
        "INCLINATION": 64.3146,
        "RA_OF_ASC_NODE": 198.6568,
        "ARG_OF_PERICENTER": 70.3409,
        "MEAN_ANOMALY": 47.6202,
        "EPHEMERIS_TYPE": 0,
        "CLASSIFICATION_TYPE": "U",
        "NORAD_CAT_ID": 32393,
        "ELEMENT_SET_NO": 999,
        "REV_AT_EPOCH": 13951,
        "BSTAR": 0,
        "MEAN_MOTION_DOT": 8.3e-07,
        "MEAN_MOTION_DDOT": 0,
        "norad_id": 32393,
        "name": "COSMOS 2434 (721)",
        "group": "glo-ops",
        "longitude_deg": NaN,
        "latitude_deg": NaN,
        "alt_km": NaN,
        "orbit_class": "HEO",
        "timestamp": "2025-11-30T04:52:16.837574+00:00"
      },
      "geometry": {
        "type": "Point",
        "coordinates": [
          NaN,
          NaN
        ]
      }
    },
    {
      "type": "Feature",
      "properties": {
        "OBJECT_NAME": "COSMOS 2436 (723)",
        "OBJECT_ID": "2007-065C",
        "EPOCH": "2025-11-29T21:52:13.245024",
        "MEAN_MOTION": 2.1309999,
        "ECCENTRICITY": 0.0017703,
        "INCLINATION": 64.3233,
        "RA_OF_ASC_NODE": 198.7065,
        "ARG_OF_PERICENTER": 8.536,
        "MEAN_ANOMALY": 345.3846,
        "EPHEMERIS_TYPE": 0,
        "CLASSIFICATION_TYPE": "U",
        "NORAD_CAT_ID": 32395,
        "ELEMENT_SET_NO": 999,
        "REV_AT_EPOCH": 13947,
        "BSTAR": 0,
        "MEAN_MOTION_DOT": 8.9e-07,
        "MEAN_MOTION_DDOT": 0,
        "norad_id": 32395,
        "name": "COSMOS 2436 (723)",
        "group": "glo-ops",
        "longitude_deg": NaN,
        "latitude_deg": NaN,
        "alt_km": NaN,
        "orbit_class": "HEO",
        "timestamp": "2025-11-30T04:52:16.837580+00:00"
      },
      "geometry": {
        "type": "Point",
        "coordinates": [
          NaN,
          NaN
        ]
      }
    },
    {
      "type": "Feature",
      "properties": {
        "OBJECT_NAME": "COSMOS 2456 (730)",
        "OBJECT_ID": "2009-070A",
        "EPOCH": "2025-11-29T04:46:23.350368",
        "MEAN_MOTION": 2.13103492,
        "ECCENTRICITY": 0.00025836,
        "INCLINATION": 64.8926,
        "RA_OF_ASC_NODE": 77.801,
        "ARG_OF_PERICENTER": 299.4073,
        "MEAN_ANOMALY": 251.8671,
        "EPHEMERIS_TYPE": 0,
        "CLASSIFICATION_TYPE": "U",
        "NORAD_CAT_ID": 36111,
        "ELEMENT_SET_NO": 999,
        "REV_AT_EPOCH": 12416,
        "BSTAR": 0,
        "MEAN_MOTION_DOT": 2e-08,
        "MEAN_MOTION_DDOT": 0,
        "norad_id": 36111,
        "name": "COSMOS 2456 (730)",
        "group": "glo-ops",
        "longitude_deg": NaN,
        "latitude_deg": NaN,
        "alt_km": NaN,
        "orbit_class": "HEO",
        "timestamp": "2025-11-30T04:52:16.838183+00:00"
      },
      "geometry": {
        "type": "Point",
        "coordinates": [
          NaN,
          NaN
        ]
      }
    },
    {
      "type": "Feature",
      "properties": {
        "OBJECT_NAME": "COSMOS 2457 (733)",
        "OBJECT_ID": "2009-070B",
        "EPOCH": "2025-11-29T18:24:09.874080",
        "MEAN_MOTION": 2.13100822,
        "ECCENTRICITY": 0.0005012,
        "INCLINATION": 64.8781,
        "RA_OF_ASC_NODE": 77.6293,
        "ARG_OF_PERICENTER": 155.1236,
        "MEAN_ANOMALY": 241.0905,
        "EPHEMERIS_TYPE": 0,
        "CLASSIFICATION_TYPE": "U",
        "NORAD_CAT_ID": 36112,
        "ELEMENT_SET_NO": 999,
        "REV_AT_EPOCH": 12418,
        "BSTAR": 0,
        "MEAN_MOTION_DOT": -3e-08,
        "MEAN_MOTION_DDOT": 0,
        "norad_id": 36112,
        "name": "COSMOS 2457 (733)",
        "group": "glo-ops",
        "longitude_deg": NaN,
        "latitude_deg": NaN,
        "alt_km": NaN,
        "orbit_class": "HEO",
        "timestamp": "2025-11-30T04:52:16.838190+00:00"
      },
      "geometry": {
        "type": "Point",
        "coordinates": [
          NaN,
          NaN
        ]
      }
    },
    {
      "type": "Feature",
      "properties": {
        "OBJECT_NAME": "COSMOS 2460 (732)",
        "OBJECT_ID": "2010-007C",
        "EPOCH": "2025-11-29T17:17:31.919712",
        "MEAN_MOTION": 2.13106088,
        "ECCENTRICITY": 0.0002827,
        "INCLINATION": 65.5369,
        "RA_OF_ASC_NODE": 321.2134,
        "ARG_OF_PERICENTER": 269.0096,
        "MEAN_ANOMALY": 90.9826,
        "EPHEMERIS_TYPE": 0,
        "CLASSIFICATION_TYPE": "U",
        "NORAD_CAT_ID": 36402,
        "ELEMENT_SET_NO": 999,
        "REV_AT_EPOCH": 12247,
        "BSTAR": 0,
        "MEAN_MOTION_DOT": -1.7e-07,
        "MEAN_MOTION_DDOT": 0,
        "norad_id": 36402,
        "name": "COSMOS 2460 (732)",
        "group": "glo-ops",
        "longitude_deg": NaN,
        "latitude_deg": NaN,
        "alt_km": NaN,
        "orbit_class": "HEO",
        "timestamp": "2025-11-30T04:52:16.838237+00:00"
      },
      "geometry": {
        "type": "Point",
        "coordinates": [
          NaN,
          NaN
        ]
      }
    },
    {
      "type": "Feature",
      "properties": {
        "OBJECT_NAME": "COSMOS 2476 (744)",
        "OBJECT_ID": "2011-064A",
        "EPOCH": "2025-11-25T18:02:35.875968",
        "MEAN_MOTION": 2.13101389,
        "ECCENTRICITY": 0.00237596,
        "INCLINATION": 65.1535,
        "RA_OF_ASC_NODE": 79.7464,
        "ARG_OF_PERICENTER": 232.8078,
        "MEAN_ANOMALY": 102.4501,
        "EPHEMERIS_TYPE": 0,
        "CLASSIFICATION_TYPE": "U",
        "NORAD_CAT_ID": 37867,
        "ELEMENT_SET_NO": 999,
        "REV_AT_EPOCH": 10942,
        "BSTAR": 0,
        "MEAN_MOTION_DOT": 1.7e-07,
        "MEAN_MOTION_DDOT": 0,
        "norad_id": 37867,
        "name": "COSMOS 2476 (744)",
        "group": "glo-ops",
        "longitude_deg": NaN,
        "latitude_deg": NaN,
        "alt_km": NaN,
        "orbit_class": "HEO",
        "timestamp": "2025-11-30T04:52:16.838948+00:00"
      },
      "geometry": {
        "type": "Point",
        "coordinates": [
          NaN,
          NaN
        ]
      }
    }
  ]
}