COSMOS 2433 (720)       
1 32275U 07052A   25332.07314330 -.00000013  00000+0  00000+0 0  9992
2 32275  65.6911 322.6987 0005672 250.9883 108.9699  2.13104008140771
COSMOS 2432 (719)       
1 32276U 07052B   25332.14557889 -.00000013  00000+0  00000+0 0  9999
2 32276  65.7069 322.8202 0011194 310.6558  49.3830  2.13103136140796
COSMOS 2434 (721)       
1 32393U 07065A   25333.30796807  .00000083  00000+0  00000+0 0  9993
2 32393  64.3146 198.6568 0004276  70.3409  47.6202  2.13101202139513
COSMOS 2436 (723)       
1 32395U 07065C   25333.91126441  .00000089  00000+0  00000+0 0  9999
2 32395  64.3233 198.7065 0017703   8.5360 345.3846  2.13099990139470
COSMOS 2456 (730)       
1 36111U 09070A   25333.19888137  .00000002  00000+0  00000+0 0  9999
2 36111  64.8926  77.8010 0002583 299.4073 251.8671  2.13103492124163
COSMOS 2457 (733)       
1 36112U 09070B   25333.76678095 -.00000003  00000+0  00000+0 0  9995
2 36112  64.8781  77.6293 0005012 155.1236 241.0905  2.13100822124180
COSMOS 2460 (732)       
1 36402U 10007C   25333.72050833 -.00000017  00000+0  00000+0 0  9994
2 36402  65.5369 321.2134 0002827 269.0096  90.9826  2.13106088122477
COSMOS 2476 (744)       
1 37867U 11064A   25329.75180412  .00000017  00000+0  00000+0 0  9998
2 37867  65.1535  79.7464 0023759 232.8078 102.4501  2.13101389109428
